STARLINK-36320          
1 68090U 26042X   26077.83335648 -.00003728  00000+0 -15348-4 0  9995
2 68090  53.1587 148.7606 0001027 100.0056 184.9949 15.80882352  3513
STARLINK-36324          
1 68091U 26042Y   26077.83335648 -.01939256  00000+0 -12809-1 0  9997
2 68091  53.1590 148.7753 0000927  78.2319 199.2207 15.78136581  3516
STARLINK-36896          
1 68092U 26042Z   26077.83335648 -.00047517  00000+0 -23843-3 0  9999
2 68092  53.1615 148.7513 0001466  84.2731 205.0091 15.80880046  3526
STARLINK-36251          
1 68093U 26042AA  26077.83335648  .00025267  00000+0  13121-3 0  9994
2 68093  53.1585 148.7334 0001207  74.9283 222.8882 15.80867722  3515
STARLINK-36787          
1 68094U 26042AB  26077.83335648 -.01939709  00000+0 -12797-1 0  9999
2 68094  53.1588 148.7219 0000738  73.9699 229.1687 15.78165060  3515
STARLINK-36790          
1 68095U 26042AC  26077.83335648 -.00053475  00000+0 -26877-3 0  9992
2 68095  53.1586 148.7423 0000981  76.7841 216.7537 15.80896621  3514
STARLINK-36328          
1 68096U 26042AD  26077.83335648 -.00031460  00000+0 -15633-3 0  9991
2 68096  53.1614 148.7065 0001424  73.1936 237.4327 15.80885282  3516
STARLINK-36853          
1 68097U 26042AE  26077.83335648 -.00022947  00000+0 -11295-3 0  9992
2 68097  53.1615 148.7245 0001339  97.9324 204.1491 15.80886928  3520
GLOBAL-34               
1 68098U 26043A   26077.93050719  .00009586  00000+0  31505-3 0  9996
2 68098  42.0218  22.1556 0005690 345.5564  14.5110 15.31604838  1982
STARLINK-37022          
1 68101U 26044A   26077.83335648 -.01829253  00000+0 -90934-2 0  9992
2 68101  97.2840  38.3971 0001672 101.5674  41.4709 15.85110031  2876
STARLINK-37046          
1 68102U 26044B   26077.83335648 -.01812786  00000+0 -89187-2 0  9994
2 68102  97.2839  38.3990 0001678  78.3437  68.2425 15.85290911  2878
STARLINK-37018          
1 68103U 26044C   26077.83335648 -.01836367  00000+0 -90104-2 0  9997
2 68103  97.2834  38.4005 0001625  80.5225  70.0405 15.85393339  2826
