CCSDS_OMM_VERS = 2.0
CREATION_DATE  = 
ORIGINATOR     = 

OBJECT_NAME    = STARLINK-36320
OBJECT_ID      = 2026-042X
CENTER_NAME    = EARTH
REF_FRAME      = TEME
TIME_SYSTEM    = UTC
MEAN_ELEMENT_THEORY = SGP/SGP4

EPOCH          = 2026-03-18T20:00:01.999872
MEAN_MOTION    = 15.80882352
ECCENTRICITY   = .00010276
INCLINATION    = 53.1587
RA_OF_ASC_NODE = 148.7606
ARG_OF_PERICENTER = 100.0056
MEAN_ANOMALY   = 184.9949

EPHEMERIS_TYPE = 0
CLASSIFICATION_TYPE = U
NORAD_CAT_ID   = 68090
ELEMENT_SET_NO = 999
REV_AT_EPOCH   = 351
BSTAR          = -.15347933E-4
MEAN_MOTION_DOT = -.3728E-4
MEAN_MOTION_DDOT = 0

CCSDS_OMM_VERS = 2.0
CREATION_DATE  = 
ORIGINATOR     = 

OBJECT_NAME    = STARLINK-36324
OBJECT_ID      = 2026-042Y
CENTER_NAME    = EARTH
REF_FRAME      = TEME
TIME_SYSTEM    = UTC
MEAN_ELEMENT_THEORY = SGP/SGP4

EPOCH          = 2026-03-18T20:00:01.999872
MEAN_MOTION    = 15.78136581
ECCENTRICITY   = .0000927
INCLINATION    = 53.1590
RA_OF_ASC_NODE = 148.7753
ARG_OF_PERICENTER = 78.2319
MEAN_ANOMALY   = 199.2207

EPHEMERIS_TYPE = 0
CLASSIFICATION_TYPE = U
NORAD_CAT_ID   = 68091
ELEMENT_SET_NO = 999
REV_AT_EPOCH   = 351
BSTAR          = -.12808717E-1
MEAN_MOTION_DOT = -.1939256E-1
MEAN_MOTION_DDOT = 0

CCSDS_OMM_VERS = 2.0
CREATION_DATE  = 
ORIGINATOR     = 

OBJECT_NAME    = STARLINK-36896
OBJECT_ID      = 2026-042Z
CENTER_NAME    = EARTH
REF_FRAME      = TEME
TIME_SYSTEM    = UTC
MEAN_ELEMENT_THEORY = SGP/SGP4

EPOCH          = 2026-03-18T20:00:01.999872
MEAN_MOTION    = 15.80880046
ECCENTRICITY   = .00014664
INCLINATION    = 53.1615
RA_OF_ASC_NODE = 148.7513
ARG_OF_PERICENTER = 84.2731
MEAN_ANOMALY   = 205.0091

EPHEMERIS_TYPE = 0
CLASSIFICATION_TYPE = U
NORAD_CAT_ID   = 68092
ELEMENT_SET_NO = 999
REV_AT_EPOCH   = 352
BSTAR          = -.23843321E-3
MEAN_MOTION_DOT = -.47517E-3
MEAN_MOTION_DDOT = 0

CCSDS_OMM_VERS = 2.0
CREATION_DATE  = 
ORIGINATOR     = 

OBJECT_NAME    = STARLINK-36251
OBJECT_ID      = 2026-042AA
CENTER_NAME    = EARTH
REF_FRAME      = TEME
TIME_SYSTEM    = UTC
MEAN_ELEMENT_THEORY = SGP/SGP4

EPOCH          = 2026-03-18T20:00:01.999872
MEAN_MOTION    = 15.80867722
ECCENTRICITY   = .00012076
INCLINATION    = 53.1585
RA_OF_ASC_NODE = 148.7334
ARG_OF_PERICENTER = 74.9283
MEAN_ANOMALY   = 222.8882

EPHEMERIS_TYPE = 0
CLASSIFICATION_TYPE = U
NORAD_CAT_ID   = 68093
ELEMENT_SET_NO = 999
REV_AT_EPOCH   = 351
BSTAR          = .13121226E-3
MEAN_MOTION_DOT = .25267E-3
MEAN_MOTION_DDOT = 0

CCSDS_OMM_VERS = 2.0
CREATION_DATE  = 
ORIGINATOR     = 

OBJECT_NAME    = STARLINK-36787
OBJECT_ID      = 2026-042AB
CENTER_NAME    = EARTH
REF_FRAME      = TEME
TIME_SYSTEM    = UTC
MEAN_ELEMENT_THEORY = SGP/SGP4

EPOCH          = 2026-03-18T20:00:01.999872
MEAN_MOTION    = 15.78165060
ECCENTRICITY   = .00007386
INCLINATION    = 53.1588
RA_OF_ASC_NODE = 148.7219
ARG_OF_PERICENTER = 73.9699
MEAN_ANOMALY   = 229.1687

EPHEMERIS_TYPE = 0
CLASSIFICATION_TYPE = U
NORAD_CAT_ID   = 68094
ELEMENT_SET_NO = 999
REV_AT_EPOCH   = 351
BSTAR          = -.12796902E-1
MEAN_MOTION_DOT = -.1939709E-1
MEAN_MOTION_DDOT = 0

CCSDS_OMM_VERS = 2.0
CREATION_DATE  = 
ORIGINATOR     = 

OBJECT_NAME    = STARLINK-36790
OBJECT_ID      = 2026-042AC
CENTER_NAME    = EARTH
REF_FRAME      = TEME
TIME_SYSTEM    = UTC
MEAN_ELEMENT_THEORY = SGP/SGP4

EPOCH          = 2026-03-18T20:00:01.999872
MEAN_MOTION    = 15.80896621
ECCENTRICITY   = .00009814
INCLINATION    = 53.1586
RA_OF_ASC_NODE = 148.7423
ARG_OF_PERICENTER = 76.7841
MEAN_ANOMALY   = 216.7537

EPHEMERIS_TYPE = 0
CLASSIFICATION_TYPE = U
NORAD_CAT_ID   = 68095
ELEMENT_SET_NO = 999
REV_AT_EPOCH   = 351
BSTAR          = -.26877136E-3
MEAN_MOTION_DOT = -.53475E-3
MEAN_MOTION_DDOT = 0

CCSDS_OMM_VERS = 2.0
CREATION_DATE  = 
ORIGINATOR     = 

OBJECT_NAME    = STARLINK-36328
OBJECT_ID      = 2026-042AD
CENTER_NAME    = EARTH
REF_FRAME      = TEME
TIME_SYSTEM    = UTC
MEAN_ELEMENT_THEORY = SGP/SGP4

EPOCH          = 2026-03-18T20:00:01.999872
MEAN_MOTION    = 15.80885282
ECCENTRICITY   = .00014244
INCLINATION    = 53.1614
RA_OF_ASC_NODE = 148.7065
ARG_OF_PERICENTER = 73.1936
MEAN_ANOMALY   = 237.4327

EPHEMERIS_TYPE = 0
CLASSIFICATION_TYPE = U
NORAD_CAT_ID   = 68096
ELEMENT_SET_NO = 999
REV_AT_EPOCH   = 351
BSTAR          = -.15632874E-3
MEAN_MOTION_DOT = -.3146E-3
MEAN_MOTION_DDOT = 0

CCSDS_OMM_VERS = 2.0
CREATION_DATE  = 
ORIGINATOR     = 

OBJECT_NAME    = STARLINK-36853
OBJECT_ID      = 2026-042AE
CENTER_NAME    = EARTH
REF_FRAME      = TEME
TIME_SYSTEM    = UTC
MEAN_ELEMENT_THEORY = SGP/SGP4

EPOCH          = 2026-03-18T20:00:01.999872
MEAN_MOTION    = 15.80886928
ECCENTRICITY   = .00013394
INCLINATION    = 53.1615
RA_OF_ASC_NODE = 148.7245
ARG_OF_PERICENTER = 97.9324
MEAN_ANOMALY   = 204.1491

EPHEMERIS_TYPE = 0
CLASSIFICATION_TYPE = U
NORAD_CAT_ID   = 68097
ELEMENT_SET_NO = 999
REV_AT_EPOCH   = 352
BSTAR          = -.11294613E-3
MEAN_MOTION_DOT = -.22947E-3
MEAN_MOTION_DDOT = 0

CCSDS_OMM_VERS = 2.0
CREATION_DATE  = 
ORIGINATOR     = 

OBJECT_NAME    = GLOBAL-34
OBJECT_ID      = 2026-043A
CENTER_NAME    = EARTH
REF_FRAME      = TEME
TIME_SYSTEM    = UTC
MEAN_ELEMENT_THEORY = SGP/SGP4

EPOCH          = 2026-03-18T22:19:55.821216
MEAN_MOTION    = 15.31604838
ECCENTRICITY   = .00056905
INCLINATION    = 42.0218
RA_OF_ASC_NODE = 22.1556
ARG_OF_PERICENTER = 345.5564
MEAN_ANOMALY   = 14.5110

EPHEMERIS_TYPE = 0
CLASSIFICATION_TYPE = U
NORAD_CAT_ID   = 68098
ELEMENT_SET_NO = 999
REV_AT_EPOCH   = 198
BSTAR          = .31504719E-3
MEAN_MOTION_DOT = .9586E-4
MEAN_MOTION_DDOT = 0

CCSDS_OMM_VERS = 2.0
CREATION_DATE  = 
ORIGINATOR     = 

OBJECT_NAME    = STARLINK-37022
OBJECT_ID      = 2026-044A
CENTER_NAME    = EARTH
REF_FRAME      = TEME
TIME_SYSTEM    = UTC
MEAN_ELEMENT_THEORY = SGP/SGP4

EPOCH          = 2026-03-18T20:00:01.999872
MEAN_MOTION    = 15.85110031
ECCENTRICITY   = .00016722
INCLINATION    = 97.2840
RA_OF_ASC_NODE = 38.3971
ARG_OF_PERICENTER = 101.5674
MEAN_ANOMALY   = 41.4709

EPHEMERIS_TYPE = 0
CLASSIFICATION_TYPE = U
NORAD_CAT_ID   = 68101
ELEMENT_SET_NO = 999
REV_AT_EPOCH   = 287
BSTAR          = -.90933714E-2
MEAN_MOTION_DOT = -.1829253E-1
MEAN_MOTION_DDOT = 0

CCSDS_OMM_VERS = 2.0
CREATION_DATE  = 
ORIGINATOR     = 

OBJECT_NAME    = STARLINK-37046
OBJECT_ID      = 2026-044B
CENTER_NAME    = EARTH
REF_FRAME      = TEME
TIME_SYSTEM    = UTC
MEAN_ELEMENT_THEORY = SGP/SGP4

EPOCH          = 2026-03-18T20:00:01.999872
MEAN_MOTION    = 15.85290911
ECCENTRICITY   = .00016787
INCLINATION    = 97.2839
RA_OF_ASC_NODE = 38.3990
ARG_OF_PERICENTER = 78.3437
MEAN_ANOMALY   = 68.2425

EPHEMERIS_TYPE = 0
CLASSIFICATION_TYPE = U
NORAD_CAT_ID   = 68102
ELEMENT_SET_NO = 999
REV_AT_EPOCH   = 287
BSTAR          = -.89187355E-2
MEAN_MOTION_DOT = -.1812786E-1
MEAN_MOTION_DDOT = 0

CCSDS_OMM_VERS = 2.0
CREATION_DATE  = 
ORIGINATOR     = 

OBJECT_NAME    = STARLINK-37018
OBJECT_ID      = 2026-044C
CENTER_NAME    = EARTH
REF_FRAME      = TEME
TIME_SYSTEM    = UTC
MEAN_ELEMENT_THEORY = SGP/SGP4

EPOCH          = 2026-03-18T20:00:01.999872
MEAN_MOTION    = 15.85393339
ECCENTRICITY   = .0001625
INCLINATION    = 97.2834
RA_OF_ASC_NODE = 38.4005
ARG_OF_PERICENTER = 80.5225
MEAN_ANOMALY   = 70.0405

EPHEMERIS_TYPE = 0
CLASSIFICATION_TYPE = U
NORAD_CAT_ID   = 68103
ELEMENT_SET_NO = 999
REV_AT_EPOCH   = 282
BSTAR          = -.90104267E-2
MEAN_MOTION_DOT = -.1836367E-1
MEAN_MOTION_DDOT = 0

